      2.10          N: GNSS NAV DATA                        RINEX VERSION / TYPE
fic2rin                                 07/07/2024 00:59:02 PGM / RUN BY / DATE
                                                            END OF HEADER
2  24  7  6  2  0  0.0 -.404554419219D-03  .727595761418D-11  .000000000000D+00
     .210000000000D+02  .953437500000D+02  .423874798944D-08 -.220655518630D+01
     .538490712643D-05  .160144333495D-01 -.111758708954D-06  .515370118523D+04
     .525600000000D+06  .104308128357D-06  .130832150777D+01  .251457095146D-06
     .967085419081D+00  .384625000000D+03 -.116584622782D+01 -.812605276843D-08
     .303226916332D-09  .100000000000D+01  .232100000000D+04  .000000000000D+00
     .240000000000D+01  .000000000000D+00 -.176951289177D-07  .210000000000D+02
     .518400000000D+06  .400000000000D+01
1  24  7  6  2  0  0.0  .247727613896D-03 -.682121026330D-11  .000000000000D+00
     .670000000000D+02 -.371875000000D+01  .604132307393D-08 -.987128786539D+00
    -.206753611565D-06  .133761174511D-01  .781565904617D-05  .515377273369D+04
     .525600000000D+06  .689178705215D-07 -.685359671913D+00  .368803739548D-06
     .954099738975D+00  .224781250000D+03  .103127222547D+01 -.806497879588D-08
    -.781818280155D-09  .100000000000D+01  .232100000000D+04  .000000000000D+00
     .340000000000D+01  .630000000000D+02 -.195577740669D-07  .670000000000D+02
     .518400000000D+06  .400000000000D+01
5  24  7  6  2  0  0.0 -.178755726665D-03 -.125055521494D-11  .000000000000D+00
     .280000000000D+02 -.123937500000D+03  .420160358508D-08 -.205916455574D+01
    -.639446079731D-05  .594889139757D-02  .241212546825D-05  .515364167023D+04
     .525600000000D+06  .113621354103D-06  .239238783395D+01 -.186264514923D-08
     .972011961023D+00  .330656250000D+03  .127900584368D+01 -.800961934708D-08
    -.725030200418D-10  .100000000000D+01  .232100000000D+04  .000000000000D+00
     .240000000000D+01  .000000000000D+00 -.107102096081D-07  .280000000000D+02
     .518400000000D+06  .400000000000D+01
3  24  7  6  2  0  0.0  .445513986051D-03  .169393388205D-10  .000000000000D+00
     .250000000000D+02 -.134500000000D+03  .394373570099D-08  .527694019705D+00
    -.722520053387D-05  .567169010174D-02  .424310564995D-05  .515370447731D+04
     .525600000000D+06 -.651925802231D-07  .244424989200D+01  .614672899246D-07
     .985105373341D+00  .310593750000D+03  .111533232925D+01 -.802712007606D-08
    -.183936233111D-09  .100000000000D+01  .232100000000D+04  .000000000000D+00
     .240000000000D+01  .000000000000D+00  .139698386192D-08  .250000000000D+02
     .518400000000D+06  .400000000000D+01
20 24  7  6  7 59 44.0  .373064074665D-03 -.454747350886D-12  .000000000000D+00
     .000000000000D+00 -.102812500000D+03  .468698094586D-08 -.839039748642D+00
    -.531598925591D-05  .367597176228D-02  .187940895557D-05  .515355704117D+04
     .547184000000D+06  .987201929092D-07  .226267106195D+01  .298023223877D-07
     .954332878378D+00  .339656250000D+03 -.258236842489D+01 -.841785063727D-08
    -.238224208709D-09  .100000000000D+01  .232100000000D+04  .000000000000D+00
     .240000000000D+01  .000000000000D+00 -.838190317154D-08  .000000000000D+00
     .541320000000D+06  .400000000000D+01
9  24  7  6  7 59 44.0  .262206420302D-03  .148929757415D-10  .000000000000D+00
     .200000000000D+01 -.736562500000D+02  .410767110099D-08  .122132259468D+01
    -.377744436264D-05  .283444859087D-02  .104401260614D-04  .515364541817D+04
     .547184000000D+06  .372529029846D-07 -.282109261968D+01 -.819563865662D-07
     .959227971970D+00  .177468750000D+03  .196838963457D+01 -.773353641855D-08
     .490734726785D-09  .100000000000D+01  .232100000000D+04  .000000000000D+00
     .240000000000D+01  .000000000000D+00  .931322574615D-09  .200000000000D+01
     .541650000000D+06  .400000000000D+01
1  24  7  6  7 59 44.0  .247581396252D-03 -.693489710102D-11  .000000000000D+00
     .600000000000D+01 -.101562500000D+02  .618704342948D-08  .216096205553D+01
    -.683590769768D-06  .133746879874D-01  .783614814281D-05  .515376887703D+04
     .547184000000D+06 -.651925802231D-07 -.685538008941D+00 -.335276126862D-06
     .954085561836D+00  .225125000000D+03  .103125136134D+01 -.781746848608D-08
    -.548237121991D-09  .100000000000D+01  .232100000000D+04  .000000000000D+00
     .240000000000D+01  .630000000000D+02 -.195577740669D-07  .600000000000D+01
     .544200000000D+06  .400000000000D+01
15 24  7  6  7 59 44.0  .177984125912D-03  .420641299570D-11  .000000000000D+00
     .700000000000D+01 -.855625000000D+02  .469590988921D-08 -.222554081425D+00
    -.444427132607D-05  .158116052626D-01  .108219683170D-04  .515368263817D+04
     .547184000000D+06 -.201165676117D-06 -.294995222995D+01  .201165676117D-06
     .936197982644D+00  .161093750000D+03  .132314306375D+01 -.824534345165D-08
     .436803908922D-09  .100000000000D+01  .232100000000D+04  .000000000000D+00
     .240000000000D+01  .000000000000D+00 -.102445483208D-07  .700000000000D+01
     .546480000000D+06  .400000000000D+01
1  24  7  6  9 59 44.0  .247531570494D-03 -.693489710102D-11  .000000000000D+00
     .800000000000D+01 -.534375000000D+01  .612775524560D-08 -.307210740368D+01
    -.484287738800D-06  .133740697056D-01  .771880149841D-05  .515377009964D+04
     .554384000000D+06  .132247805595D-06 -.685593848524D+00 -.262632966042D-06
     .954081859190D+00  .226343750000D+03  .103126963903D+01 -.775889461768D-08
    -.522878922863D-09  .100000000000D+01  .232100000000D+04  .000000000000D+00
     .240000000000D+01  .630000000000D+02 -.195577740669D-07  .800000000000D+01
     .547200000000D+06  .400000000000D+01
9  24  7  6  9 59 44.0  .262313988060D-03  .148929757415D-10  .000000000000D+00
     .300000000000D+01 -.843125000000D+02  .405445459859D-08  .227195463768D+01
    -.430643558502D-05  .283501553349D-02  .104401260614D-04  .515364293289D+04
     .554384000000D+06  .298023223877D-07 -.282114708266D+01  .102445483208D-06
     .959231858943D+00  .178281250000D+03  .196795255415D+01 -.757317259589D-08
     .411802867528D-09  .100000000000D+01  .232100000000D+04  .000000000000D+00
     .240000000000D+01  .000000000000D+00  .931322574615D-09  .300000000000D+01
     .547200000000D+06  .400000000000D+01
20 24  7  6  9 59 44.0  .373061280698D-03 -.454747350886D-12  .000000000000D+00
     .100000000000D+01 -.943437500000D+02  .464197907135D-08  .211231200822D+00
    -.488571822643D-05  .367724045645D-02  .163726508617D-05  .515355936623D+04
     .554384000000D+06  .540167093277D-07  .226261045910D+01  .912696123123D-07
     .954331108247D+00  .345125000000D+03 -.258238640269D+01 -.841642200633D-08
    -.256796410887D-09  .100000000000D+01  .232100000000D+04  .000000000000D+00
     .240000000000D+01  .000000000000D+00 -.838190317154D-08  .100000000000D+01
     .547200000000D+06  .400000000000D+01
15 24  7  6  9 59 44.0  .178014393896D-03  .420641299570D-11  .000000000000D+00
     .180000000000D+02 -.856875000000D+02  .474412618333D-08  .827629863912D+00
    -.450387597084D-05  .158111400669D-01  .107809901237D-04  .515368173218D+04
     .554384000000D+06 -.210478901863D-06 -.295001028585D+01 -.115483999252D-06
     .936200100949D+00  .164625000000D+03  .132313553411D+01 -.824355766298D-08
     .184293390845D-09  .100000000000D+01  .232100000000D+04  .000000000000D+00
     .240000000000D+01  .000000000000D+00 -.102445483208D-07  .180000000000D+02
     .547200000000D+06  .400000000000D+01
2  24  7  6 10  0  0.0 -.404345337301D-03  .727595761418D-11  .000000000000D+00
     .430000000000D+02  .113781250000D+03  .440661212451D-08  .199375716511D+01
     .574253499508D-05  .160149575677D-01  .907108187675D-06  .515370043564D+04
     .554400000000D+06  .195577740669D-06  .130808235285D+01 -.391155481339D-07
     .967090119437D+00  .353812500000D+03 -.116549407125D+01 -.808462247126D-08
    -.532165023952D-10  .100000000000D+01  .232100000000D+04  .000000000000D+00
     .240000000000D+01  .000000000000D+00 -.176951289177D-07  .430000000000D+02
     .547200000000D+06  .400000000000D+01
5  24  7  6 10  0  0.0 -.178793445230D-03 -.125055521494D-11  .000000000000D+00
     .320000000000D+02 -.120781250000D+03  .416517349619D-08  .214154062429D+01
    -.643357634544D-05  .594844936859D-02  .291690230370D-05  .515364217186D+04
     .554400000000D+06  .726431608200D-07  .239215449705D+01 -.102445483208D-06
     .972006176645D+00  .329750000000D+03  .127909250841D+01 -.804426364730D-08
    -.296440919383D-09  .100000000000D+01  .232100000000D+04  .000000000000D+00
     .240000000000D+01  .000000000000D+00 -.107102096081D-07  .320000000000D+02
     .547200000000D+06  .400000000000D+01
3  24  7  6 10  0  0.0  .446000136435D-03  .169393388205D-10  .000000000000D+00
     .420000000000D+02 -.121531250000D+03  .386801826134D-08 -.155512964450D+01
    -.631809234619D-05  .567208603024D-02  .302866101265D-05  .515370265770D+04
     .554400000000D+06  .221654772758D-06  .244402461870D+01  .651925802231D-07
     .985100778316D+00  .334187500000D+03  .111559817657D+01 -.790818655057D-08
    -.355371945525D-09  .100000000000D+01  .232100000000D+04  .000000000000D+00
     .240000000000D+01  .000000000000D+00  .139698386192D-08  .420000000000D+02
     .547200000000D+06  .400000000000D+01
4  24  7  6 10  0  0.0  .398085452616D-03  .784439180279D-11  .000000000000D+00
     .900000000000D+02 -.750625000000D+02  .398516599816D-08  .145790765945D+01
    -.386126339436D-05  .287186179776D-02  .104159116745D-04  .515373424149D+04
     .554400000000D+06 -.577419996262D-07 -.276134256587D+01  .465661287308D-07
     .965575994836D+00  .182437500000D+03 -.296775718938D+01 -.756495796801D-08
     .410374236591D-09  .100000000000D+01  .232100000000D+04  .000000000000D+00
     .240000000000D+01  .000000000000D+00 -.465661287308D-08  .346000000000D+03
     .547200000000D+06  .400000000000D+01
